0 DMSP 5D-2 F11 DEB
1 29069U 91082BQ  13282.70630968  .00003015  00000-0  16485-2 0  7578
2 29069 098.8449 231.3626 0097608 351.4024 126.7323 14.10326831458484
0 DMSP 5D-2 F11 DEB
1 29069U 91082BQ  13287.74286005  .00004210  00000-0  22917-2 0  7593
2 29069 098.8455 236.3184 0097115 337.3721 138.2637 14.10358878459196
0 DMSP 5D-2 F11 DEB
1 29069U 91082BQ  13290.07266324  .00004194  00000-0  22826-2 0  7607
2 29069 098.8461 238.6105 0096973 330.8664 087.3682 14.10377295459521
0 DMSP 5D-2 F11 DEB
1 29069U 91082BQ  13292.13157619  .00003606  00000-0  19664-2 0  7616
2 29069 098.8467 240.6366 0096721 325.1007 101.2226 14.10392868459813
0 DMSP 5D-2 F11 DEB
1 29069U 91082BQ  13295.10921534  .00004634  00000-0  25192-2 0  7627
2 29069 098.8468 243.5673 0096373 316.7131 100.0372 14.10413275460237
